STARLINK-32377          
1 61888U 24204Q   26068.45592980 -.00000694  00000+0 -11329-4 0  9997
2 61888  53.1601 128.0286 0000700  64.3390 295.7684 15.30191472 75059
2025-313BC              
1 67298U 25313BC  26068.18968176  .00075331  00000+0  26410-2 0  9997
2 67298  97.3985 144.8110 0008478 328.9209  31.1528 15.29126358  7890
